STARLINK-30259          
1 57521U 23115A   26068.18220055 -.00004096  00000+0 -14312-3 0  9991
2 57521  42.9984   4.4614 0001029 277.8055  82.2680 15.26733515143498
FLOCK 4G-3              
1 62639U 25009AG  26068.80174065  .00011494  00000+0  43389-3 0  9993
2 62639  97.4062 151.4068 0001320 293.2042  66.9058 15.27179310 63727
